[{"OBJECT_NAME":"STARLINK-33891","OBJECT_ID":"2025-092Z","EPOCH":"2026-01-30T06:22:01.350624","MEAN_MOTION":15.27583837,"ECCENTRICITY":0.00011831,"INCLINATION":43.0023,"RA_OF_ASC_NODE":29.9259,"ARG_OF_PERICENTER":234.1162,"MEAN_ANOMALY":125.958,"EPHEMERIS_TYPE":0,"CLASSIFICATION_TYPE":"U","NORAD_CAT_ID":63827,"ELEMENT_SET_NO":999,"REV_AT_EPOCH":4267,"BSTAR":0.001883786,"MEAN_MOTION_DOT":0.00051947,"MEAN_MOTION_DDOT":0},{"OBJECT_NAME":"STARLINK-33903","OBJECT_ID":"2025-092AA","EPOCH":"2026-01-30T07:13:36.932160","MEAN_MOTION":15.27589177,"ECCENTRICITY":0.00012802,"INCLINATION":43.0035,"RA_OF_ASC_NODE":29.3325,"ARG_OF_PERICENTER":271.7084,"MEAN_ANOMALY":88.3621,"EPHEMERIS_TYPE":0,"CLASSIFICATION_TYPE":"U","NORAD_CAT_ID":63828,"ELEMENT_SET_NO":999,"REV_AT_EPOCH":4279,"BSTAR":0.0011622431,"MEAN_MOTION_DOT":0.00031867,"MEAN_MOTION_DDOT":0},{"OBJECT_NAME":"STARLINK-33889","OBJECT_ID":"2025-092AB","EPOCH":"2026-01-30T06:53:16.427616","MEAN_MOTION":15.27605399,"ECCENTRICITY":8.194e-5,"INCLINATION":42.9999,"RA_OF_ASC_NODE":29.2371,"ARG_OF_PERICENTER":261.5694,"MEAN_ANOMALY":98.5065,"EPHEMERIS_TYPE":0,"CLASSIFICATION_TYPE":"U","NORAD_CAT_ID":63829,"ELEMENT_SET_NO":999,"REV_AT_EPOCH":4268,"BSTAR":0.0016552674,"MEAN_MOTION_DOT":0.00045605,"MEAN_MOTION_DDOT":0},{"OBJECT_NAME":"STARLINK-33984","OBJECT_ID":"2025-092AC","EPOCH":"2026-01-30T00:47:44.344896","MEAN_MOTION":15.27581618,"ECCENTRICITY":5.557e-5,"INCLINATION":42.998,"RA_OF_ASC_NODE":30.7589,"ARG_OF_PERICENTER":343.498,"MEAN_ANOMALY":16.5854,"EPHEMERIS_TYPE":0,"CLASSIFICATION_TYPE":"U","NORAD_CAT_ID":63830,"ELEMENT_SET_NO":999,"REV_AT_EPOCH":4270,"BSTAR":0.00057582435,"MEAN_MOTION_DOT":0.00015618,"MEAN_MOTION_DDOT":0},{"OBJECT_NAME":"STARLINK-33940","OBJECT_ID":"2025-092AD","EPOCH":"2026-01-30T01:02:32.619840","MEAN_MOTION":15.27571836,"ECCENTRICITY":7.148e-5,"INCLINATION":42.9986,"RA_OF_ASC_NODE":30.8474,"ARG_OF_PERICENTER":241.1842,"MEAN_ANOMALY":118.8938,"EPHEMERIS_TYPE":0,"CLASSIFICATION_TYPE":"U","NORAD_CAT_ID":63831,"ELEMENT_SET_NO":999,"REV_AT_EPOCH":4275,"BSTAR":0.0010858432,"MEAN_MOTION_DOT":0.00029731,"MEAN_MOTION_DDOT":0},{"OBJECT_NAME":"STARLINK-33978","OBJECT_ID":"2025-092AE","EPOCH":"2026-01-30T06:56:58.005600","MEAN_MOTION":15.275898,"ECCENTRICITY":9.048e-5,"INCLINATION":43.0021,"RA_OF_ASC_NODE":29.2561,"ARG_OF_PERICENTER":242.1187,"MEAN_ANOMALY":117.9573,"EPHEMERIS_TYPE":0,"CLASSIFICATION_TYPE":"U","NORAD_CAT_ID":63832,"ELEMENT_SET_NO":999,"REV_AT_EPOCH":4279,"BSTAR":0.0016069581,"MEAN_MOTION_DOT":0.00044236,"MEAN_MOTION_DDOT":0},{"OBJECT_NAME":"STARLINK-34018","OBJECT_ID":"2025-093A","EPOCH":"2026-01-30T03:08:25.529856","MEAN_MOTION":15.27630729,"ECCENTRICITY":0.00022117,"INCLINATION":43.0041,"RA_OF_ASC_NODE":295.8005,"ARG_OF_PERICENTER":301.4062,"MEAN_ANOMALY":58.6573,"EPHEMERIS_TYPE":0,"CLASSIFICATION_TYPE":"U","NORAD_CAT_ID":63836,"ELEMENT_SET_NO":999,"REV_AT_EPOCH":4207,"BSTAR":0.001246132,"MEAN_MOTION_DOT":0.00034242,"MEAN_MOTION_DDOT":0},{"OBJECT_NAME":"STARLINK-34053","OBJECT_ID":"2025-093B","EPOCH":"2026-01-30T03:04:43.423104","MEAN_MOTION":15.27594017,"ECCENTRICITY":0.00014787,"INCLINATION":43.0028,"RA_OF_ASC_NODE":295.7707,"ARG_OF_PERICENTER":262.5642,"MEAN_ANOMALY":97.5042,"EPHEMERIS_TYPE":0,"CLASSIFICATION_TYPE":"U","NORAD_CAT_ID":63837,"ELEMENT_SET_NO":999,"REV_AT_EPOCH":4201,"BSTAR":0.0010479606,"MEAN_MOTION_DOT":0.000287,"MEAN_MOTION_DDOT":0},{"OBJECT_NAME":"STARLINK-34042","OBJECT_ID":"2025-093C","EPOCH":"2026-01-29T22:00:01.999584","MEAN_MOTION":15.27567332,"ECCENTRICITY":0.00014268,"INCLINATION":43.0004,"RA_OF_ASC_NODE":293.0348,"ARG_OF_PERICENTER":270.5973,"MEAN_ANOMALY":199.927,"EPHEMERIS_TYPE":0,"CLASSIFICATION_TYPE":"U","NORAD_CAT_ID":63838,"ELEMENT_SET_NO":999,"REV_AT_EPOCH":591,"BSTAR":-0.0002231374,"MEAN_MOTION_DOT":-6.395e-5,"MEAN_MOTION_DDOT":0},{"OBJECT_NAME":"STARLINK-34040","OBJECT_ID":"2025-093D","EPOCH":"2026-01-29T18:55:26.712768","MEAN_MOTION":15.27617871,"ECCENTRICITY":0.00040928,"INCLINATION":43.0028,"RA_OF_ASC_NODE":297.5236,"ARG_OF_PERICENTER":297.2603,"MEAN_ANOMALY":62.7832,"EPHEMERIS_TYPE":0,"CLASSIFICATION_TYPE":"U","NORAD_CAT_ID":63839,"ELEMENT_SET_NO":999,"REV_AT_EPOCH":4202,"BSTAR":0.0015671879,"MEAN_MOTION_DOT":0.00043173,"MEAN_MOTION_DDOT":0},{"OBJECT_NAME":"STARLINK-33990","OBJECT_ID":"2025-093E","EPOCH":"2026-01-30T02:49:55.320096","MEAN_MOTION":15.27590606,"ECCENTRICITY":0.00016397,"INCLINATION":43.004,"RA_OF_ASC_NODE":295.6804,"ARG_OF_PERICENTER":270.1788,"MEAN_ANOMALY":89.8876,"EPHEMERIS_TYPE":0,"CLASSIFICATION_TYPE":"U","NORAD_CAT_ID":63840,"ELEMENT_SET_NO":999,"REV_AT_EPOCH":4185,"BSTAR":0.0011717846,"MEAN_MOTION_DOT":0.00032134,"MEAN_MOTION_DDOT":0},{"OBJECT_NAME":"STARLINK-34056","OBJECT_ID":"2025-093F","EPOCH":"2026-01-30T03:17:40.547040","MEAN_MOTION":15.27597711,"ECCENTRICITY":0.00017395,"INCLINATION":43.003,"RA_OF_ASC_NODE":295.8438,"ARG_OF_PERICENTER":266.5515,"MEAN_ANOMALY":93.5137,"EPHEMERIS_TYPE":0,"CLASSIFICATION_TYPE":"U","NORAD_CAT_ID":63841,"ELEMENT_SET_NO":999,"REV_AT_EPOCH":4185,"BSTAR":0.0010819292,"MEAN_MOTION_DOT":0.00029646,"MEAN_MOTION_DDOT":0},{"OBJECT_NAME":"STARLINK-34026","OBJECT_ID":"2025-093G","EPOCH":"2026-01-30T00:11:12.945408","MEAN_MOTION":15.27615959,"ECCENTRICITY":7.012e-5,"INCLINATION":43.0018,"RA_OF_ASC_NODE":296.5928,"ARG_OF_PERICENTER":221.4831,"MEAN_ANOMALY":138.5967,"EPHEMERIS_TYPE":0,"CLASSIFICATION_TYPE":"U","NORAD_CAT_ID":63842,"ELEMENT_SET_NO":999,"REV_AT_EPOCH":4183,"BSTAR":0.0011222081,"MEAN_MOTION_DOT":0.00030781,"MEAN_MOTION_DDOT":0},{"OBJECT_NAME":"STARLINK-33777","OBJECT_ID":"2025-093H","EPOCH":"2026-01-30T02:25:51.858624","MEAN_MOTION":15.27593057,"ECCENTRICITY":0.00016554,"INCLINATION":43,"RA_OF_ASC_NODE":295.5641,"ARG_OF_PERICENTER":258.583,"MEAN_ANOMALY":101.4835,"EPHEMERIS_TYPE":0,"CLASSIFICATION_TYPE":"U","NORAD_CAT_ID":63843,"ELEMENT_SET_NO":999,"REV_AT_EPOCH":4207,"BSTAR":0.0012864185,"MEAN_MOTION_DOT":0.00035321,"MEAN_MOTION_DDOT":0},{"OBJECT_NAME":"STARLINK-34041","OBJECT_ID":"2025-093J","EPOCH":"2026-01-30T01:52:46.243200","MEAN_MOTION":15.27586833,"ECCENTRICITY":0.00021079,"INCLINATION":43.0015,"RA_OF_ASC_NODE":296.2589,"ARG_OF_PERICENTER":255.7244,"MEAN_ANOMALY":104.3374,"EPHEMERIS_TYPE":0,"CLASSIFICATION_TYPE":"U","NORAD_CAT_ID":63844,"ELEMENT_SET_NO":999,"REV_AT_EPOCH":4206,"BSTAR":0.0010446289,"MEAN_MOTION_DOT":0.00028602,"MEAN_MOTION_DDOT":0},{"OBJECT_NAME":"STARLINK-34011","OBJECT_ID":"2025-093K","EPOCH":"2026-01-30T03:38:01.983840","MEAN_MOTION":15.27593879,"ECCENTRICITY":0.00017225,"INCLINATION":43.0001,"RA_OF_ASC_NODE":295.9504,"ARG_OF_PERICENTER":275.119,"MEAN_ANOMALY":84.9465,"EPHEMERIS_TYPE":0,"CLASSIFICATION_TYPE":"U","NORAD_CAT_ID":63845,"ELEMENT_SET_NO":999,"REV_AT_EPOCH":4185,"BSTAR":0.0013315706,"MEAN_MOTION_DOT":0.00036578,"MEAN_MOTION_DDOT":0}]
