STARLINK-33891          
1 63827U 25092Z   26030.26529341  .00051947  00000+0  18838-2 0  9992
2 63827  43.0023  29.9259 0001183 234.1162 125.9580 15.27583837 42676
STARLINK-33903          
1 63828U 25092AA  26030.30112190  .00031867  00000+0  11622-2 0  9991
2 63828  43.0035  29.3325 0001280 271.7084  88.3621 15.27589177 42790
STARLINK-33889          
1 63829U 25092AB  26030.28699569  .00045605  00000+0  16553-2 0  9992
2 63829  42.9999  29.2371 0000819 261.5694  98.5065 15.27605399 42687
STARLINK-33984          
1 63830U 25092AC  26030.03315214  .00015618  00000+0  57582-3 0  9998
2 63830  42.9980  30.7589 0000555 343.4980  16.5854 15.27581618 42708
STARLINK-33940          
1 63831U 25092AD  26030.04343310  .00029731  00000+0  10858-2 0  9993
2 63831  42.9986  30.8474 0000714 241.1842 118.8938 15.27571836 42752
STARLINK-33978          
1 63832U 25092AE  26030.28956025  .00044236  00000+0  16070-2 0  9992
2 63832  43.0021  29.2561 0000904 242.1187 117.9573 15.27589800 42797
STARLINK-34018          
1 63836U 25093A   26030.13085104  .00034242  00000+0  12461-2 0  9998
2 63836  43.0041 295.8005 0002211 301.4062  58.6573 15.27630729 42070
STARLINK-34053          
1 63837U 25093B   26030.12828036  .00028700  00000+0  10480-2 0  9998
2 63837  43.0028 295.7707 0001478 262.5642  97.5042 15.27594017 42015
STARLINK-34042          
1 63838U 25093C   26029.91668981 -.00006395  00000+0 -22314-3 0  9993
2 63838  43.0004 293.0348 0001426 270.5973 199.9270 15.27567332  5919
STARLINK-34040          
1 63839U 25093D   26029.78850362  .00043173  00000+0  15672-2 0  9996
2 63839  43.0028 297.5236 0004092 297.2603  62.7832 15.27617871 42027
STARLINK-33990          
1 63840U 25093E   26030.11800139  .00032134  00000+0  11718-2 0  9996
2 63840  43.0040 295.6804 0001639 270.1788  89.8876 15.27590606 41855
STARLINK-34056          
1 63841U 25093F   26030.13727485  .00029646  00000+0  10819-2 0  9996
2 63841  43.0030 295.8438 0001739 266.5515  93.5137 15.27597711 41854
STARLINK-34026          
1 63842U 25093G   26030.00778872  .00030781  00000+0  11222-2 0  9990
2 63842  43.0018 296.5928 0000701 221.4831 138.5967 15.27615959 41836
STARLINK-33777          
1 63843U 25093H   26030.10129466  .00035321  00000+0  12864-2 0  9999
2 63843  43.0000 295.5641 0001655 258.5830 101.4835 15.27593057 42072
STARLINK-34041          
1 63844U 25093J   26030.07831300  .00028602  00000+0  10446-2 0  9991
2 63844  43.0015 296.2589 0002107 255.7244 104.3374 15.27586833 42062
STARLINK-34011          
1 63845U 25093K   26030.15141185  .00036578  00000+0  13316-2 0  9996
2 63845  43.0001 295.9504 0001722 275.1190  84.9465 15.27593879 41857
